

*******************************************************************************
Ephemeris / WWW_USER Fri Feb  3 05:03:23 2023 Pasadena, USA      / Horizons    
*******************************************************************************
Target body name: Mars (499)                      {source: mar097}
Center body name: Earth (399)                     {source: mar097}
Center-site name: GEOCENTRIC
*******************************************************************************
Start time      : A.D. 2023-Jan-01 00:00:00.0000 UT      
Stop  time      : A.D. 2030-Dec-31 00:00:00.0000 UT      
Step-size       : 1440 minutes
*******************************************************************************
Target pole/equ : IAU_MARS                        {West-longitude positive}
Target radii    : 3396.2 x 3396.2 x 3376.2 km     {Equator, meridian, pole}    
Center geodetic : 0.00000000,0.00000000,0.0000000 {E-lon(deg),Lat(deg),Alt(km)}
Center cylindric: 0.00000000,0.00000000,0.0000000 {E-lon(deg),Dxy(km),Dz(km)}
Center pole/equ : ITRF93                          {East-longitude positive}
Center radii    : 6378.1 x 6378.1 x 6356.8 km     {Equator, meridian, pole}    
Target primary  : Sun (R_eq= 696000.000) km
Vis. interferer : MOON (R_eq= 1737.400) km        {source: mar097}
Rel. light bend : Sun                             {source: mar097}
Rel. lght bnd GM: 1.3271E+11 km^3/s^2                                          
Atmos refraction: NO (AIRLESS)
RA format       : HMS
Time format     : JD  
EOP file        : eop.230201.p230427                                           
EOP coverage    : DATA-BASED 1962-JAN-20 TO 2023-FEB-01. PREDICTS-> 2023-APR-26
Units conversion: 1 au= 149597870.700 km, c= 299792.458 km/s, 1 day= 86400.0 s 
Table cut-offs 1: Elevation (-90.0deg=NO ),Airmass (>38.000=NO), Daylight (NO )
Table cut-offs 2: Solar elongation (  0.0,180.0=NO ),Local Hour Angle( 0.0=NO )
Table cut-offs 3: RA/DEC angular rate (     0.0=NO )                           
Table format    : Comma Separated Values (spreadsheet)
************************************************************************************************************************************************************************************
Date_________JDUT, , , R.A._(ICRF), DEC__(ICRF),    APmag,  S-brt,             delta,     deldot,     S-O-T,/r,     S-T-O,  Sky_motion, Sky_mot_PA, RelVel-ANG, Lun_Sky_Brt  sky_SNR
************************************************************************************************************************************************************************************
$$SOE
2460265.500000000, , , 15 28 05.14, -18 58 15.4,    1.306,  3.887,  2.52789019097223, -2.5039597,    0.3881,/T,    0.2502,   1.7637464,  104.87111,  -2.665622,        n.a.     n.a.
2460266.500000000, , , 15 30 58.40, -19 09 07.2,    1.313,  3.896,  2.52642139078846, -2.5821548,    0.1337,/T,    0.0865,   1.7657696,  104.63470,  -2.747218,        n.a.     n.a.
2460267.500000000, , , 15 33 52.22, -19 19 49.5,    1.319,  3.903,  2.52490774324552, -2.6592454,    0.2610,/L,    0.1668,   1.7677800,  104.39541,  -2.827416,        n.a.     n.a.
2460268.500000000, , , 15 36 46.62, -19 30 22.3,    1.337,  3.922,  2.52334991251187, -2.7351461,    0.5482,/L,    0.3515,   1.7697811,  104.15341,  -2.906468,        n.a.     n.a.
2460269.500000000, , , 15 39 41.60, -19 40 45.3,    1.344,  3.930,  2.52174860222465, -2.8098066,    0.8450,/L,    0.5429,   1.7717783,  103.90859,  -2.983989,        n.a.     n.a.
2460270.500000000, , , 15 42 37.15, -19 50 58.5,    1.355,  3.943,  2.52010453353809, -2.8832170,    1.1436,/L,    0.7358,   1.7737763,  103.66109,  -3.060179,        n.a.     n.a.
2460271.500000000, , , 15 45 33.27, -20 01 01.6,    1.367,  3.957,  2.51841842125421, -2.9554094,    1.4426,/L,    0.9291,   1.7757800,  103.41091,  -3.135056,        n.a.     n.a.
2460272.500000000, , , 15 48 29.96, -20 10 54.5,    1.372,  3.963,  2.51669094956524, -3.0264572,    1.7416,/L,    1.1226,   1.7777940,  103.15808,  -3.208687,        n.a.     n.a.
2460273.500000000, , , 15 51 27.22, -20 20 37.1,    1.379,  3.971,  2.51492274952031, -3.0964698,    2.0403,/L,    1.3162,   1.7798219,  102.90263,  -3.281185,        n.a.     n.a.
2460274.500000000, , , 15 54 25.05, -20 30 09.2,    1.393,  3.986,  2.51311438095089, -3.1655822,    2.3386,/L,    1.5098,   1.7818663,  102.64459,  -3.352689,        n.a.     n.a.
2460275.500000000, , , 15 57 23.46, -20 39 30.7,    1.404,  3.999,  2.51126632161578, -3.2339409,    2.6367,/L,    1.7034,   1.7839278,  102.38395,  -3.423354,        n.a.     n.a.
2460276.500000000, , , 16 00 22.43, -20 48 41.4,    1.398,  3.995,  2.50937896528858, -3.3016877,    2.9343,/L,    1.8970,   1.7860062,  102.12076,  -3.493333,        n.a.     n.a.
2460277.500000000, , , 16 03 21.97, -20 57 41.1,    1.396,  3.994,  2.50745262857638, -3.3689462,    3.2314,/L,    2.0906,   1.7880996,  101.85503,  -3.562762,        n.a.     n.a.
2460278.500000000, , , 16 06 22.08, -21 06 29.9,    1.388,  3.988,  2.50548756423817, -3.4358130,    3.5282,/L,    2.2841,   1.7902055,  101.58677,  -3.631749,        n.a.     n.a.
2460279.500000000, , , 16 09 22.75, -21 15 07.4,    1.383,  3.985,  2.50348397758415, -3.5023559,    3.8245,/L,    2.4776,   1.7923208,  101.31601,  -3.700376,        n.a.     n.a.
2460280.500000000, , , 16 12 23.98, -21 23 33.5,    1.380,  3.984,  2.50144204258426, -3.5686165,    4.1204,/L,    2.6711,   1.7944424,  101.04277,  -3.768694,        n.a.     n.a.
2460281.500000000, , , 16 15 25.77, -21 31 48.2,    1.398,  4.004,  2.49936191531467, -3.6346161,    4.4159,/L,    2.8645,   1.7965672,  100.76708,  -3.836736,        n.a.     n.a.
2460282.500000000, , , 16 18 28.12, -21 39 51.2,    1.404,  4.011,  2.49724374370677, -3.7003627,    4.7109,/L,    3.0579,   1.7986925,  100.48897,  -3.904520,        n.a.     n.a.
2460283.500000000, , , 16 21 31.01, -21 47 42.4,    1.392,  4.000,  2.49508767372212, -3.7658560,    5.0054,/L,    3.2512,   1.8008155,  100.20847,  -3.972054,        n.a.     n.a.
2460284.500000000, , , 16 24 34.45, -21 55 21.6,    1.388,  3.999,  2.49289385284642, -3.8310914,    5.2995,/L,    3.4445,   1.8029339,  99.925609,  -4.039344,        n.a.     n.a.
2460285.500000000, , , 16 27 38.43, -22 02 48.7,    1.402,  4.015,  2.49066243220854, -3.8960609,    5.5931,/L,    3.6377,   1.8050450,  99.640429,  -4.106390,        n.a.     n.a.
2460286.500000000, , , 16 30 42.94, -22 10 03.6,    1.408,  4.022,  2.48839356881090, -3.9607516,    5.8862,/L,    3.8309,   1.8071461,  99.352966,  -4.173190,        n.a.     n.a.
2460287.500000000, , , 16 33 47.98, -22 17 06.1,    1.393,  4.009,  2.48608742939405, -4.0251418,    6.1789,/L,    4.0239,   1.8092343,  99.063260,  -4.239732,        n.a.     n.a.
2460288.500000000, , , 16 36 53.54, -22 23 56.0,    1.385,  4.003,  2.48374419733815, -4.0891944,    6.4710,/L,    4.2169,   1.8113062,  98.771357,  -4.305990,        n.a.     n.a.
2460289.500000000, , , 16 39 59.60, -22 30 33.3,    1.381,  4.002,  2.48136408359559, -4.1528497,    6.7626,/L,    4.4098,   1.8133587,  98.477304,  -4.371914,        n.a.     n.a.
2460290.500000000, , , 16 43 06.17, -22 36 57.8,    1.373,  3.995,  2.47894734176370, -4.2160190,    7.0537,/L,    4.6026,   1.8153884,  98.181158,  -4.437425,        n.a.     n.a.
2460291.500000000, , , 16 46 13.23, -22 43 09.3,    1.373,  3.997,  2.47649428596532, -4.2785814,    7.3442,/L,    4.7952,   1.8173926,  97.882979,  -4.502409,        n.a.     n.a.
2460292.500000000, , , 16 49 20.77, -22 49 07.7,    1.358,  3.984,  2.47400530847337, -4.3403884,    7.6342,/L,    4.9878,   1.8193698,  97.582837,  -4.566718,        n.a.     n.a.
2460293.500000000, , , 16 52 28.78, -22 54 52.8,    1.340,  3.968,  2.47148089273299, -4.4012755,    7.9236,/L,    5.1801,   1.8213197,  97.280806,  -4.630188,        n.a.     n.a.
2460294.500000000, , , 16 55 37.25, -23 00 24.6,    1.359,  3.990,  2.46892161753568, -4.4610804,    8.2124,/L,    5.3724,   1.8232440,  96.976964,  -4.692650,        n.a.     n.a.
2460295.500000000, , , 16 58 46.17, -23 05 42.9,    1.345,  3.977,  2.46632815001267, -4.5196626,    8.5005,/L,    5.5644,   1.8251458,  96.671390,  -4.753954,        n.a.     n.a.
2460296.500000000, , , 17 01 55.52, -23 10 47.7,    1.347,  3.982,  2.46370122816281, -4.5769191,    8.7880,/L,    5.7563,   1.8270296,  96.364160,  -4.813984,        n.a.     n.a.
2460297.500000000, , , 17 05 05.31, -23 15 38.7,    1.345,  3.982,  2.46104163631663, -4.6327931,    9.0749,/L,    5.9480,   1.8289005,  96.055345,  -4.872671,        n.a.     n.a.
2460298.500000000, , , 17 08 15.51, -23 20 15.8,    1.348,  3.987,  2.45835017801703, -4.6872746,    9.3611,/L,    6.1395,   1.8307637,  95.745013,  -4.929993,        n.a.     n.a.
2460299.500000000, , , 17 11 26.12, -23 24 39.1,    1.349,  3.991,  2.45562765014928, -4.7403956,    9.6466,/L,    6.3308,   1.8326243,  95.433225,  -4.985973,        n.a.     n.a.
2460300.500000000, , , 17 14 37.13, -23 28 48.3,    1.341,  3.984,  2.45287482063485, -4.7922231,    9.9315,/L,    6.5219,   1.8344867,  95.120043,  -5.040670,        n.a.     n.a.
2460301.500000000, , , 17 17 48.53, -23 32 43.3,    1.338,  3.983,  2.45009241063102, -4.8428507,   10.2156,/L,    6.7128,   1.8363542,  94.805522,  -5.094174,        n.a.     n.a.
2460302.500000000, , , 17 21 00.30, -23 36 24.1,    1.339,  3.987,  2.44728108146588, -4.8923906,   10.4991,/L,    6.9034,   1.8382295,  94.489721,  -5.146595,        n.a.     n.a.
2460303.500000000, , , 17 24 12.45, -23 39 50.6,    1.355,  4.005,  2.44444142640168, -4.9409647,   10.7819,/L,    7.0939,   1.8401140,  94.172694,  -5.198057,        n.a.     n.a.
2460304.500000000, , , 17 27 24.95, -23 43 02.7,    1.364,  4.017,  2.44157396735585, -4.9886967,   11.0640,/L,    7.2842,   1.8420080,  93.854498,  -5.248690,        n.a.     n.a.
